DMSP 5D-2 F14 (USA 131) 
1 24753U 97012A   19088.61034588  .00000043  00000-0  45063-4 0  9990
2 24753  99.0333  94.4076 0009290  35.1002 325.0781 14.15827701135125
NOAA 15                 
1 25338U 98030A   19088.57995971  .00000020  00000-0  27205-4 0  9991
2 25338  98.7542 109.9634 0011513 116.6987 243.5373 14.25899685 85433
DMSP 5D-3 F15 (USA 147) 
1 25991U 99067A   19088.59598128 -.00000097  00000-0 -26271-4 0  9990
2 25991  98.9087  53.1213 0008985 292.7368 156.0048 14.16533666997292
METEOSAT-8 (MSG-1)      
1 27509U 02040B   19088.55934154  .00000125  00000-0  00000-0 0  9999
2 27509   5.9552  55.8878 0002730  15.6571 357.9479  1.00268941 60820
DMSP 5D-3 F16 (USA 172) 
1 28054U 03048A   19088.63381382 -.00000091  00000-0 -24643-4 0  9999
2 28054  98.8583  65.5961 0008426  52.1281  68.1963 14.13695544796796
NOAA 18                 
1 28654U 05018A   19088.59574137  .00000037  00000-0  45015-4 0  9995
2 28654  99.1071 134.3081 0014889  49.2323 311.0137 14.12412098713972
METEOSAT-9 (MSG-2)      
1 28912U 05049B   19088.33637382  .00000002  00000-0  00000-0 0  9993
2 28912   3.4998  71.3842 0001565 355.4929 243.9341  1.00275144 48592
HIMAWARI-7 (MTSAT-2)    
1 28937U 06004A   19088.58001642 -.00000261  00000-0  00000-0 0  9991
2 28937   0.0166 113.3505 0003614 256.7983 170.3387  1.00272959 48046
FORMOSAT-3 FM6          
1 29047U 06011A   19088.60776840  .00000004  00000-0  17661-4 0  9993
2 29047  71.9777 299.9238 0049116 111.6764 248.9613 14.28670939677643
FORMOSAT-3 FM1          
1 29048U 06011B   19088.61413609 -.00000004  00000-0  14538-4 0  9997
2 29048  71.9670 211.3404 0042161  66.9251 293.6322 14.28617998680133
FORMOSAT-3 FM5          
1 29049U 06011C   19088.22057808  .00000077  00000-0  46529-4 0  9994
2 29049  72.0225  21.2635 0033188 100.2775 260.2107 14.28704717675869
FORMOSAT-3 FM3          
1 29050U 06011D   19088.49941880  .00000044  00000-0  19589-4 0  9997
2 29050  72.0161 212.3167 0048437  54.0464 306.5167 14.58776840691392
FORMOSAT-3 FM4          
1 29051U 06011E   19088.57948817  .00000040  00000-0  31790-4 0  9998
2 29051  72.0039 283.4303 0068869 334.6620  25.1144 14.28731492678508
FORMOSAT-3 FM2          
1 29052U 06011F   19088.54040958  .00000079  00000-0  47085-4 0  9991
2 29052  72.0367 356.3858 0038579  58.2177 302.2708 14.28830337676005
GOES 13                 
1 29155U 06018A   19088.44173465 -.00000303  00000-0  00000+0 0  9993
2 29155   0.3869 283.3720 0012458 139.3148 223.0427  1.00270872 47079
METOP-A                 
1 29499U 06044A   19088.61073413 -.00000022  00000-0  96483-5 0  9998
2 29499  98.5850 144.0624 0002117  98.7721  28.9483 14.21545123645362
DMSP 5D-3 F17 (USA 191) 
1 29522U 06050A   19088.55359987  .00000015  00000-0  30942-4 0  9996
2 29522  98.8257 106.0864 0010205  12.4779 347.6644 14.14005147639722
FENGYUN 3A              
1 32958U 08026A   19088.52293901 -.00000030  00000-0  52869-5 0  9999
2 32958  98.3802  93.1978 0008242 181.4514 178.6641 14.18598322561600
FENGYUN 2E              
1 33463U 08066A   19088.58417961 -.00000216  00000-0  00000-0 0  9996
2 33463   3.4355  69.2311 0004721 264.4446 149.8340  1.00265853 37657
NOAA 19                 
1 33591U 09005A   19088.57382039  .00000028  00000-0  40665-4 0  9993
2 33591  99.1759  77.7530 0013050 244.3930 115.5893 14.12341364522196
GOES 14                 
1 35491U 09033A   19088.56602519 -.00000111  00000-0  00000+0 0  9990
2 35491   0.1064 105.1624 0007501 133.2556  47.6428  1.00272000 35711
METEOR-M 1              
1 35865U 09049A   19088.62114864  .00000016  00000-0  25906-4 0  9990
2 35865  98.4116  90.4828 0003397  64.5608 295.5922 14.22188911494402
DMSP 5D-3 F18 (USA 210) 
1 35951U 09057A   19088.56810773  .00000055  00000-0  51865-4 0  9996
2 35951  98.6196  89.2541 0010701 195.6461 164.4383 14.13180369260704
GOES 15                 
1 36411U 10008A   19088.63979112  .00000036  00000-0  00000-0 0  9997
2 36411   0.0411 100.5562 0000865 170.6694  17.6647  1.00278606 33236
COMS 1                  
1 36744U 10032A   19088.57661422 -.00000363  00000-0  00000-0 0  9992
2 36744   0.0222 178.2967 0000277 287.7671  56.3611  1.00270402 24651
FENGYUN 3B              
1 37214U 10059A   19088.52740688 -.00000006  00000-0  19973-4 0  9998
2 37214  98.9910  59.7983 0018185  90.5157 269.8102 14.15910261434577
SUOMI NPP               
1 37849U 11061A   19088.58555519  .00000010  00000-0  25692-4 0  9998
2 37849  98.7296  27.8985 0001662  89.9764 322.0130 14.19560848384373
FENGYUN 2F              
1 38049U 12002A   19088.60258009 -.00000375  00000-0  00000-0 0  9991
2 38049   1.0668  80.9609 0001669  51.0123  23.7954  1.00265855 26452
METEOSAT-10 (MSG-3)     
1 38552U 12035B   19088.33759513  .00000046  00000-0  00000+0 0  9995
2 38552   0.9963  14.1247 0001457  57.7909 245.5815  1.00280719 24773
METOP-B                 
1 38771U 12049A   19088.59075510 -.00000011  00000-0  15011-4 0  9995
2 38771  98.7132 149.0139 0001479 142.7619 346.2901 14.21483975338683
FENGYUN 3C              
1 39260U 13052A   19088.56723455 -.00000017  00000-0  12711-4 0  9999
2 39260  98.6131 150.1788 0012034  60.3313 299.9058 14.15863204285456
METEOR-M 2              
1 40069U 14037A   19088.51399522 -.00000015  00000-0  12755-4 0  9997
2 40069  98.5621 136.4202 0006596 125.2632 234.9167 14.20660342244894
HIMAWARI-8              
1 40267U 14060A   19088.57914406 -.00000295  00000-0  00000-0 0  9999
2 40267   0.0114 199.7882 0001049 189.9242 146.0800  1.00269811 16329
FENGYUN 2G              
1 40367U 14090A   19088.57085666 -.00000319  00000-0  00000-0 0  9997
2 40367   1.0529 102.8820 0001930 308.9526  79.7140  1.00279179 15602
METEOSAT-11 (MSG-4)     
1 40732U 15034A   19088.33558872 -.00000024  00000-0  00000+0 0  9992
2 40732   0.9036 221.8648 0000930 114.4739 330.5394  1.00271180 13605
ELEKTRO-L 2             
1 41105U 15074A   19088.56623316 -.00000115  00000-0  00000-0 0  9994
2 41105   0.1727 122.8577 0002326 274.2668  69.3449  1.00270979 12081
HIMAWARI-9              
1 41836U 16064A   19088.57914406 -.00000293  00000-0  00000-0 0  9996
2 41836   0.0185 149.8375 0000607 267.0732 119.0220  1.00272593  8759
GOES 16                 
1 41866U 16071A   19088.52150251 -.00000267  00000-0  00000-0 0  9993
2 41866   0.0142 359.8281 0001036  71.0995 228.2261  1.00272598  8679
FENGYUN 4A              
1 41882U 16077A   19088.60531670 -.00000348  00000-0  00000-0 0  9994
2 41882   0.2353 286.2844 0005064 218.1086   4.7375  1.00274268  8546
CYGFM05                 
1 41884U 16078A   19088.00091319  .00000369  00000-0  21408-4 0  9993
2 41884  34.9567 312.5871 0015571  16.6272 343.4947 15.14337735126384
CYGFM04                 
1 41885U 16078B   19087.85764748  .00000365  00000-0  20917-4 0  9999
2 41885  34.9498 309.0745 0013837  20.9367 339.1909 15.14844244126406
CYGFM02                 
1 41886U 16078C   19087.98262364  .00000382  00000-0  21806-4 0  9998
2 41886  34.9590 309.7256 0014617  19.6374 340.4898 15.14843378126414
CYGFM01                 
1 41887U 16078D   19087.05791592  .00000374  00000-0  21814-4 0  9997
2 41887  34.9535 318.9003 0016126   9.4433 350.6579 15.14156288126232
CYGFM08                 
1 41888U 16078E   19088.02833051  .00000386  00000-0  22198-4 0  9992
2 41888  34.9504 310.5170 0015115  21.9333 338.2022 15.14563281126394
CYGFM06                 
1 41889U 16078F   19088.02489582  .00000380  00000-0  21702-4 0  9993
2 41889  34.9584 308.1335 0013570  19.5719 340.5511 15.14836573126423
CYGFM07                 
1 41890U 16078G   19088.59644381  .00000345  00000-0  19900-4 0  9995
2 41890  34.9521 303.8832 0013190  27.0687 333.0710 15.14837052126517
CYGFM03                 
1 41891U 16078H   19087.99814441  .00000373  00000-0  21339-4 0  9995
2 41891  34.9554 307.7290 0012779  20.5549 339.5674 15.14836956126424
FENGYUN 3D              
1 43010U 17072A   19088.46869370 -.00000026  00000-0  81228-5 0  9999
2 43010  98.7071  29.0569 0000783 349.9445  10.1706 14.19716605 70911
NOAA 20                 
1 43013U 17073A   19088.54065880 -.00000009  00000-0  16357-4 0  9997
2 43013  98.7142  27.9589 0001265 104.1981 255.9336 14.19551215 70398
GOES 17                 
1 43226U 18022A   19088.41646561  .00000079  00000-0  00000+0 0  9994
2 43226   0.0396   8.2191 0003229  22.9101 168.1016  1.00272128  3996
FENGYUN 2H              
1 43491U 18050A   19088.57972397 -.00000146  00000-0  00000-0 0  9992
2 43491   1.6935 282.8800 0001803 236.3017 315.2223  1.00269731  3076
METOP-C                 
1 43689U 18087A   19088.54197542 -.00000044  00000-0  00000-0 0  9996
2 43689  98.7145 149.2636 0002144 169.6770 190.4458 14.21481586 20243
GEO-KOMPSAT-2A          
1 43823U 18100A   19088.57670146 -.00000362  00000-0  00000-0 0  9994
2 43823   0.0303  22.1667 0002002  44.0540  96.3373  1.00273008  1185
